{
    "links": {
        "self": "http://www.neowsapp.com/rest/v1/neo/54094703?api_key=iIulBulltgU6a56xZRHN4H3l9WmuAYTsLGpBGhQ2"
    },
    "id": "54094703",
    "neo_reference_id": "54094703",
    "name": "(2020 RQ33)",
    "designation": "2020 RQ33",
    "nasa_jpl_url": "http://ssd.jpl.nasa.gov/sbdb.cgi?sstr=54094703",
    "absolute_magnitude_h": 21.627,
    "estimated_diameter": {
        "kilometers": {
            "estimated_diameter_min": 0.1256478254,
            "estimated_diameter_max": 0.2809570788
        },
        "meters": {
            "estimated_diameter_min": 125.6478253979,
            "estimated_diameter_max": 280.9570788148
        },
        "miles": {
            "estimated_diameter_min": 0.0780739149,
            "estimated_diameter_max": 0.174578581
        },
        "feet": {
            "estimated_diameter_min": 412.2304114786,
            "estimated_diameter_max": 921.7752224589
        }
    },
    "is_potentially_hazardous_asteroid": false,
    "close_approach_data": [
        {
            "close_approach_date": "1915-12-01",
            "close_approach_date_full": "1915-Dec-01 13:32",
            "epoch_date_close_approach": -1706783280000,
            "relative_velocity": {
                "kilometers_per_second": "1.4081637822",
                "kilometers_per_hour": "5069.3896160912",
                "miles_per_hour": "3149.9215645095"
            },
            "miss_distance": {
                "astronomical": "0.3691619488",
                "lunar": "143.6039980832",
                "kilometers": "55225841.225529056",
                "miles": "34315746.4952347328"
            },
            "orbiting_body": "Earth"
        },
        {
            "close_approach_date": "2001-12-05",
            "close_approach_date_full": "2001-Dec-05 02:23",
            "epoch_date_close_approach": 1007518980000,
            "relative_velocity": {
                "kilometers_per_second": "1.1296053205",
                "kilometers_per_hour": "4066.5791536255",
                "miles_per_hour": "2526.814141318"
            },
            "miss_distance": {
                "astronomical": "0.3843822733",
                "lunar": "149.5247043137",
                "kilometers": "57502769.351437871",
                "miles": "35730564.0267137798"
            },
            "orbiting_body": "Earth"
        },
        {
            "close_approach_date": "2020-10-16",
            "close_approach_date_full": "2020-Oct-16 14:55",
            "epoch_date_close_approach": 1602860100000,
            "relative_velocity": {
                "kilometers_per_second": "2.6441401653",
                "kilometers_per_hour": "9518.9045951921",
                "miles_per_hour": "5914.6771358292"
            },
            "miss_distance": {
                "astronomical": "0.4632249184",
                "lunar": "180.1944932576",
                "kilometers": "69297461.123563808",
                "miles": "43059445.6491562304"
            },
            "orbiting_body": "Earth"
        },
        {
            "close_approach_date": "2036-11-18",
            "close_approach_date_full": "2036-Nov-18 18:59",
            "epoch_date_close_approach": 2110647540000,
            "relative_velocity": {
                "kilometers_per_second": "1.9349642075",
                "kilometers_per_hour": "6965.8711471552",
                "miles_per_hour": "4328.3214358532"
            },
            "miss_distance": {
                "astronomical": "0.3151831848",
                "lunar": "122.6062588872",
                "kilometers": "47150733.105896376",
                "miles": "29298106.9807309488"
            },
            "orbiting_body": "Earth"
        }
    ],
    "orbital_data": {
        "orbit_id": "1",
        "orbit_determination_date": "2020-11-26 05:21:01",
        "first_observation_date": "2020-09-10",
        "last_observation_date": "2020-10-17",
        "data_arc_in_days": 37,
        "observations_used": 28,
        "orbit_uncertainty": "6",
        "minimum_orbit_intersection": ".314012",
        "jupiter_tisserand_invariant": "3.579",
        "epoch_osculation": "2459000.5",
        "eccentricity": ".403153263133293",
        "semi_major_axis": "2.165185239843379",
        "inclination": "5.075916468104611",
        "ascending_node_longitude": "184.5991142224375",
        "orbital_period": "1163.699944504232",
        "perihelion_distance": "1.292283745112479",
        "perihelion_argument": "233.2162871354301",
        "aphelion_distance": "3.038086734574279",
        "perihelion_time": "2459198.636362804898",
        "mean_anomaly": "298.7049119090993",
        "mean_motion": ".309358096732891",
        "equinox": "J2000",
        "orbit_class": {
            "orbit_class_type": "AMO",
            "orbit_class_description": "Near-Earth asteroid orbits similar to that of 1221 Amor",
            "orbit_class_range": "1.017 AU < q (perihelion) < 1.3 AU"
        }
    },
    "is_sentry_object": false
}